#dP2024  6  2  0  0  0.00000000      96 __u+U IGS20 FIT  IAC
## 2317      0.00000000   900.00000000 60463 0.0000000000000
+  130   C01C02C03C04C05C06C07C08C09C10C11C12C13C14C16C19C20
+        C21C22C23C24C25C26C27C28C29C30C32C33C34C35C36C37C38
+        C39C40C41C42C43C44C45C46C60E02E03E04E05E07E08E09E10
+        E11E12E13E14E15E18E19E21E24E25E26E27E30E31E33E34E36
+        G01G02G03G04G05G06G07G08G09G10G11G12G13G14G15G16G17
+        G18G19G20G21G22G23G24G25G26G27G28G29G30G31G32J02J03
+        J04J07R01R02R03R04R05R06R07R08R09R10R11R12R13R14R15
+        R16R17R18R19R20R21R22R23R24R25R26  0  0  0  0  0  0
++        17 17 17 17 17  9 10 10  9 11  9  9  9  9  9  7  7
++         7  7  8  7  7  7  7  7  7  7  8  7  7  7  7  8  8
++         8  8  8  7  7  7  7  7 17  5  4  4  4  5  5  4  4
++         4  4  4  4  4  4  4  4  4  4  4  4  6  4  4  4  4
++         5  4  4  4  4  4  4  4  4  4  4  4  4  4  4  8  4
++         4  4  4  4  4  4  4  4  4  4  4  4  4  4  4 10 10
++        10 17  8  6  6  6  6 15  6  6  6 15  6  6  7  6  6
++         6  6  6  7  8  6  6 15  6  8  8  0  0  0  0  0  0
%c M  cc GPS ccc cccc cccc cccc cccc ccccc ccccc ccccc ccccc
%c cc cc ccc ccc cccc cccc cccc cccc ccccc ccccc ccccc ccccc
%f  0.0000000  0.000000000  0.00000000000  0.000000000000000
%f  0.0000000  0.000000000  0.00000000000  0.000000000000000
%i    0    0    0    0      0      0      0      0         0
%i    0    0    0    0      0      0      0      0         0
/* INFORMATION & ANALYSIS CENTER (IAC)            RAPID DATA
/* S/V CLOCKS ARE ALIGNED TO GNSS TIME                      
/* G:C1WC2W R:C1PC2P E:C1XC5X C:C2IC6I J:C1CC2S             
/* PCV:IGS20_2290 OL/AL:FES2004  NONE     YN ORB:CoN CLK:CoN
*  2024 06 02 21 30  0.00000000
PC01 -34336.790371  24447.946514  -1349.972747    899.945787
PC02   4540.080450  41908.973178  -1136.558425    741.356271
PC03 -14702.216579  39512.844941  -1330.719802    359.680408
PC04 -39650.015278  14329.190942  -1068.317466   -559.124398
PC05  21887.913556  36025.097120   -579.292166   -723.839731
PC06 -17898.503118  34308.025302  16472.461740    472.045499
PC07  -3201.134695  37043.490821  20197.359179   -673.065432
PC08  -7972.336711  18836.155878 -36903.527531   -174.502616
PC09 -10948.587823  32894.814150  24038.750707    166.072669
PC10   4075.999890  39940.142295  14150.470024 999999.999999
PC11   3342.907617  20941.407276 -18083.988628    594.012414
PC12 -10595.686141  25755.059089  -1785.655683   -252.888087
PC13   -693.107052  21727.662322 -35961.840892    437.397796
PC14  14162.096687  23729.338029  -4130.694217    913.132417
PC16 -20129.253713  34074.860455  14350.945392   -562.818798
PC19 -18957.040820 -19796.074065  -5119.165020   -913.360339
PC20  -8317.866395 -24079.035686  11351.397567   -532.304336
PC21  -8433.566021  14135.609438 -22527.060149   -971.357148
PC22 -19357.639098  -3839.869414 -19719.596448     15.938806
PC23  27761.202586  -1442.400584   2454.893084   -783.607088
PC24  -1107.693318  16489.994056  22479.169109    911.044038
PC25  19167.072510  10095.212720  17573.709667    415.759912
PC26 -20004.628245  13204.584066  14301.402416   -300.205080
PC27  15188.844508 -22382.520600  -6899.475728    321.597126
PC28  18431.506481  -8273.920245 -19248.082750    246.904101
PC29 -10913.925525 -13855.971460  21615.583151    289.773839
PC30   3216.415187 -26094.262907   9369.161897    -92.822250
PC32   8463.694292 -14080.967344  22567.201879   -637.722130
PC33  19092.550402  19738.739036   5046.350324   -962.130557
PC34  -1937.798138  25646.103743 -10824.784468    447.264377
PC35 -18144.577494   8545.172620  19371.787906    347.705719
PC36 -18979.521691 -10498.319178 -17538.070576     99.502822
PC37  20368.948638 -12699.827009 -14200.685241   -950.111757
PC38 -15342.762715  19117.567707 -34298.303666    158.925963
PC39 -21497.433728  34852.240224   9656.524024     -8.563508
PC40  -6955.395884  34401.789798  23588.300343    -73.213813
PC41  19720.325906   4646.170918  19254.015856   -964.022765
PC42   7043.945994  23823.384581 -12709.824973   -444.645477
PC43  10436.132273  14787.716078 -21250.353137     73.939047
PC44 -14381.237980  22852.130088   6975.770726    491.942186
PC45 -27764.094904   1234.507122  -2644.095764    -90.876402
PC46    304.018896 -16314.793722 -22636.984325   -153.493812
PC60   7300.157402  41498.382245  -1690.887450     -1.015162
PE02  17033.572175  -8636.134016 -22616.089181    132.383238
PE03  12390.341345 -19063.220191  18946.006248   -117.844626
PE04   -213.910189  29521.526559  -2200.522917   -411.946017
PE05  16983.783876   2334.189159  24139.279942   4753.439501
PE07 -11494.798819 -22781.983028 -14976.630532   -123.616829
PE08    798.483606 -29420.294401   3075.425393   -280.703085
PE09  11368.375837  22879.535675  14972.642409   -465.551139
PE10   2184.181830  16999.229210 -24145.687250   -629.677712
PE11  12833.553829  10614.948159 -24488.248993   2729.631253
PE12  -7586.211829  20260.232503 -20203.686943  -1065.367219
PE13 -12228.233225 -10965.925920  24620.974492    -21.984723
PE14 -14945.877362  14075.199330  18065.887240     58.126399
PE15   8202.893507 -20333.323602  19889.321130   -106.569245
PE18  19063.640534   -984.151307 -22469.154116    181.723508
PE19 -13239.772641  17151.928398 -20155.942194     48.753376
PE21 -27082.542780  -6337.931359  10119.789710   -597.882707
PE24  21383.550900  18371.621468   8985.035282   -797.206635
PE25  27143.740614   6664.184852  -9742.840057      5.259648
PE26 -25387.573188   5023.481656  14363.472117    472.516205
PE27 -21628.851465 -18207.330626  -8771.417615   -365.267979
PE30  -3296.772985 -19227.197874 -22273.802071   -364.669272
PE31   3486.378306  19199.449160  22265.147519    -25.274646
PE33 -23743.465132  17408.592105  -3080.631711     12.379486
PE34  23477.500773 -17666.162830   3557.412182   -114.790109
PE36  25163.136064  -4637.388195 -14895.501035   -235.800449
PG01 -24823.601092  -6965.980549   6690.240360    265.098305
PG02 -11163.227695  20230.150473 -12355.701292   -424.917435
PG03   1564.160546  16277.954862 -21114.242094    394.693132
PG04  -1551.459804  26135.199784  -4005.104288    374.788057
PG05  14506.643235  -8918.369675  20225.668949   -174.939000
PG06  21278.676336  -1760.518276 -15807.871649    240.023779
PG07   7880.426975  13600.661523  21910.282173   -105.060569
PG08  -7345.418251  21223.623876  13728.131754    210.587915
PG09   8031.043288  24053.065631   7727.614661    219.844424
PG10 -24453.076567 -10723.431463  -1201.278921    -34.766789
PG11  23591.979079 -11452.471636  -4000.643303   -676.860215
PG12   1846.243021 -16028.664594 -21387.797143   -510.766609
PG13  13193.446605 -13928.549781  18055.870764    655.162039
PG14  23014.452377  13324.364818   2154.421933    415.997499
PG15   4614.808188 -22246.752257  13098.342674    165.856774
PG16 -18026.295365   4625.167980  18783.210124   -274.969502
PG17  12684.139120  14216.545292 -18019.819495    699.802298
PG18  -7889.711132 -12670.550377  21977.666229   -619.674762
PG19  14839.543615   4815.797040 -21716.556208    490.891959
PG20  22227.362896  -4150.441085  13878.061733    374.323005
PG21 -14966.435639  19636.958435  -7836.030450    117.874857
PG22  23886.691990   9463.596927  -5677.617316    -22.138455
PG23 -18971.431083 -15766.983000  10130.081811    240.830333
PG24  11690.949482 -20928.270813 -11397.138931   -474.875962
PG25  -9128.687923 -18010.120453 -17723.857833    496.762055
PG26 -25205.064432  -2941.414083   8296.297742    143.279844
PG27 -13045.011613  10849.487698  20032.840420    -26.727183
PG28 -20155.424324   -113.623686 -17306.688804   -271.398134
PG29  -3840.848893 -25645.709544   5389.043019   -595.912286
PG30  17480.146424   5406.595815  19486.887823   -380.548302
PG31 -23941.914669   8310.856827  -8804.894392   -227.591020
PG32 -14384.555085 -11436.655339 -19034.318082   -617.255038
PJ02 -27160.014517  21572.257314  29133.526826     -0.257077
PJ03 -34215.178802  24585.119061   3503.099295      0.428195
PJ04 -20487.436214  24738.957066 -22278.540399     50.325700
PJ07 -25366.461076  33683.473385     20.112790     -0.003376
PR01   3223.466343  20786.893109 -14439.029808     87.251346
PR02  11864.274041  22447.726640   2135.776491    -23.149315
PR03  14700.237825  11163.081909  17627.847645    101.334807
PR04   9190.674385  -5594.042139  23159.981111    239.315313
PR05   -989.415830 -19605.853701  16313.257951    132.478451
PR06 -13231.614737 -21564.213928  -3314.774509   -165.947575
PR07 -14597.989874 -10600.112309 -18011.083811     83.724585
PR08  -9103.021898   5924.705405 -23016.396944     -4.504918
PR09 -13400.920722  -9979.771187 -19219.549670    190.038508
PR10 -23954.207277  -4793.120146  -7477.181742   -171.490497
PR11 -22900.074287   3787.531790  10568.955912     22.681734
PR12  -6335.293112  10399.127534  22443.131472     40.856206
PR13  10775.504763  10446.404270  20616.211835    -47.990608
PR14  24674.014053   3854.107603   5272.855602     26.539901
PR15  22113.400513  -4392.194626 -11919.120450     79.203591
PR16   6570.492593 -10222.959379 -22419.331203     26.128953
PR17  12966.005142  -1223.370152 -21922.727995     92.360664
PR18  16944.363924 -15373.968545 -11320.615895    145.110713
PR19  13833.729620 -21159.619867   3379.190825   -278.885087
PR20   -200.774935 -15098.828025  20572.290153   -113.843409
PR21 -12833.727094    996.202830  22020.184014   -106.006165
PR22 -17446.286419  15542.737331  10241.364016    106.870169
PR23 -11670.078522  21686.528115  -6654.281606   -122.704905
PR24   1636.073528  14915.475326 -20622.721203    -58.308839
PR25 -13413.472416    854.443031  21684.926616    -22.733527
PR26  -9704.778373   4749.561732 -23083.465297 999999.999999
EOF
